ONEWEB-0309             
1 49095U 21075W   26199.90627761 -.00000236  00000+0 -64047-3 0  9993
2 49095  87.9153 359.5525 0002358  90.0036 270.1366 13.17648635237755
ONEWEB-0310             
1 49096U 21075X   26199.87403449 -.00000002  00000+0 -40422-4 0  9998
2 49096  87.8968 344.3786 0001878  98.0655 262.0687 13.12442132239343
ONEWEB-0311             
1 49097U 21075Y   26199.83710061 -.00000037  00000+0 -12931-3 0  9997
2 49097  87.9150 359.5665 0001650  80.3802 279.7515 13.17648051237793
ONEWEB-0312             
1 49098U 21075Z   26199.85229253 -.00000037  00000+0 -12811-3 0  9995
2 49098  87.9149 359.5735 0001969  85.4747 274.6609 13.17648661237770
ONEWEB-0313             
1 49099U 21075AA  26199.85720390 -.00000157  00000+0 -43796-3 0  9993
2 49099  87.9146 359.5778 0001818  89.8156 270.3184 13.17648669237768
ONEWEB-0314             
1 49100U 21075AB  26199.82358854 -.00000202  00000+0 -55425-3 0  9998
2 49100  87.9159 359.5607 0002012  84.2828 275.8533 13.17649048237735
ONEWEB-0315             
1 49101U 21075AC  26199.84693797  .00000379  00000+0  10180-2 0  9990
2 49101  87.8975 344.3511 0001545  88.3640 271.7666 13.12443292239321
ONEWEB-0316             
1 49102U 21075AD  26199.87532700  .00000059  00000+0  11736-3 0  9994
2 49102  87.9193 329.1550 0001955 100.0741 260.0611 13.18686241241387
ONEWEB-0317             
1 49103U 21075AE  26199.85032785  .00000421  00000+0  11345-2 0  9999
2 49103  87.8970 344.3739 0002527 105.3636 254.7772 13.12442607239346
ONEWEB-0318             
1 49104U 21075AF  26199.87181695  .00000036  00000+0  58973-4 0  9999
2 49104  87.9198 329.1578 0001781  94.0055 266.1280 13.18686809241346
ONEWEB-0319             
1 49105U 21075AG  26199.83878680  .00000032  00000+0  49967-4 0  9992
2 49105  87.9150 359.5710 0001463  81.6067 278.5231 13.17648048237779
ONEWEB-0323             
1 49106U 21075AH  26199.90792267 -.00000051  00000+0 -17772-3 0  9998
2 49106  87.8973 344.3445 0001546  81.9296 278.2008 13.12443724238711
ONEWEB-0329             
1 49107U 21075AJ  26199.84721485  .00000017  00000+0  11386-4 0  9992
2 49107  87.9153 359.5706 0001918  88.7616 271.3735 13.17647738237755
ONEWEB-0330             
1 49108U 21075AK  26199.85072610 -.00000025  00000+0 -96368-4 0  9997
2 49108  87.9152 359.5812 0001997  88.9296 271.2065 13.17646794237796
ONEWEB-0292             
1 49186U 21083A   26199.85543648  .00000166  00000+0  42079-3 0  9999
2 49186  87.8982 313.9359 0001798  98.4757 261.6576 13.13469784235087
ONEWEB-0303             
1 49187U 21083B   26199.86844103 -.00000019  00000+0 -81135-4 0  9997
2 49187  87.9198 329.1569 0001789  94.7627 265.3710 13.18684256234151
ONEWEB-0306             
1 49188U 21083C   26199.85833109  .00000197  00000+0  46644-3 0  9991
2 49188  87.9197 329.1482 0002092 101.5537 258.5830 13.18686204234196
ONEWEB-0307             
1 49189U 21083D   26199.84950897  .00000293  00000+0  76748-3 0  9990
2 49189  87.8981 313.9348 0001896  97.0786 263.0558 13.13468663235084
ONEWEB-0320             
1 49190U 21083E   26199.87854864 -.00000224  00000+0 -60023-3 0  9997
2 49190  87.9190 329.1587 0001975  98.8358 261.2998 13.18685729234159
ONEWEB-0321             
1 49191U 21083F   26199.71586445 -.00000188  00000+0 -49382-3 0  9992
2 49191  87.9178 268.1520 0002154 103.6890 256.4484 13.20771643240990
ONEWEB-0322             
1 49192U 21083G   26199.84528625  .00000335  00000+0  88168-3 0  9990
2 49192  87.8980 313.9352 0002117 112.4680 247.6674 13.13470384235073
ONEWEB-0324             
1 49193U 21083H   26199.85158697  .00000064  00000+0  12985-3 0  9993
2 49193  87.9203 329.1545 0002032  95.5318 264.6046 13.18687002234175
ONEWEB-0325             
1 49194U 21083J   26199.93082413  .00000116  00000+0  26255-3 0  9998
2 49194  87.9192 329.1444 0001828 100.1826 259.9512 13.18688107234194
ONEWEB-0326             
1 49195U 21083K   26199.87028251 -.00000003  00000+0 -40914-4 0  9998
2 49195  87.9199 329.1569 0001655  94.4369 265.6953 13.18686619234172
ONEWEB-0327             
1 49196U 21083L   26199.87000288  .00000024  00000+0  28555-4 0  9997
2 49196  87.9192 329.1585 0001481  97.9931 262.1370 13.18686198234193
ONEWEB-0328             
1 49197U 21083M   26199.83512827  .00000225  00000+0  58082-3 0  9991
2 49197  87.8988 313.9137 0002047  96.7369 263.3993 13.13470447235054
ONEWEB-0331             
1 49198U 21083N   26199.86338959  .00000154  00000+0  35737-3 0  9990
2 49198  87.9200 329.1523 0001656  90.4931 269.6391 13.18685468234182
ONEWEB-0333             
1 49199U 21083P   26199.83004795  .00000120  00000+0  29336-3 0  9997
2 49199  87.8981 313.9381 0001886 101.6233 258.5108 13.13470335235067
ONEWEB-0334             
1 49200U 21083Q   26199.73017048 -.00000069  00000+0 -20180-3 0  9996
2 49200  87.9182 268.1596 0002568 115.0690 245.0710 13.20769680240953
ONEWEB-0335             
1 49201U 21083R   26199.82496815  .00000020  00000+0  20748-4 0  9996
2 49201  87.8980 313.9365 0001830  96.4437 263.6900 13.13469545235077
