OBJECT_NAME,OBJECT_ID,EPOCH,MEAN_MOTION,ECCENTRICITY,INCLINATION,RA_OF_ASC_NODE,ARG_OF_PERICENTER,MEAN_ANOMALY,EPHEMERIS_TYPE,CLASSIFICATION_TYPE,NORAD_CAT_ID,ELEMENT_SET_NO,REV_AT_EPOCH,BSTAR,MEAN_MOTION_DOT,MEAN_MOTION_DDOT
ONEWEB-0309,2021-075W,2026-07-18T21:45:02.385504,13.17648635,.00023583,87.9153,359.5525,90.0036,270.1366,0,U,49095,999,23775,-.64047022E-3,-.236E-5,0
ONEWEB-0310,2021-075X,2026-07-18T20:58:36.579936,13.12442132,.00018785,87.8968,344.3786,98.0655,262.0687,0,U,49096,999,23934,-.40421728E-4,-.2E-7,0
ONEWEB-0311,2021-075Y,2026-07-18T20:05:25.492704,13.17648051,.000165,87.9150,359.5665,80.3802,279.7515,0,U,49097,999,23779,-.12930588E-3,-.37E-6,0
ONEWEB-0312,2021-075Z,2026-07-18T20:27:18.074592,13.17648661,.00019698,87.9149,359.5735,85.4747,274.6609,0,U,49098,999,23777,-.12810846E-3,-.37E-6,0
ONEWEB-0313,2021-075AA,2026-07-18T20:34:22.416960,13.17648669,.00018186,87.9146,359.5778,89.8156,270.3184,0,U,49099,999,23776,-.43795606E-3,-.157E-5,0
ONEWEB-0314,2021-075AB,2026-07-18T19:45:58.049856,13.17649048,.0002012,87.9159,359.5607,84.2828,275.8533,0,U,49100,999,23773,-.55424723E-3,-.202E-5,0
ONEWEB-0315,2021-075AC,2026-07-18T20:19:35.440608,13.12443292,.00015456,87.8975,344.3511,88.3640,271.7666,0,U,49101,999,23932,.10180111E-2,.379E-5,0
ONEWEB-0316,2021-075AD,2026-07-18T21:00:28.252800,13.18686241,.00019557,87.9193,329.1550,100.0741,260.0611,0,U,49102,999,24138,.11736284E-3,.59E-6,0
ONEWEB-0317,2021-075AE,2026-07-18T20:24:28.326240,13.12442607,.00025278,87.8970,344.3739,105.3636,254.7772,0,U,49103,999,23934,.11345003E-2,.421E-5,0
ONEWEB-0318,2021-075AF,2026-07-18T20:55:24.984480,13.18686809,.0001781,87.9198,329.1578,94.0055,266.1280,0,U,49104,999,24134,.5897278E-4,.36E-6,0
ONEWEB-0319,2021-075AG,2026-07-18T20:07:51.179520,13.17648048,.00014635,87.9150,359.5710,81.6067,278.5231,0,U,49105,999,23777,.49966895E-4,.32E-6,0
ONEWEB-0323,2021-075AH,2026-07-18T21:47:24.518688,13.12443724,.00015464,87.8973,344.3445,81.9296,278.2008,0,U,49106,999,23871,-.17771792E-3,-.51E-6,0
ONEWEB-0329,2021-075AJ,2026-07-18T20:19:59.363040,13.17647738,.00019181,87.9153,359.5706,88.7616,271.3735,0,U,49107,999,23775,.11385734E-4,.17E-6,0
ONEWEB-0330,2021-075AK,2026-07-18T20:25:02.735040,13.17646794,.00019977,87.9152,359.5812,88.9296,271.2065,0,U,49108,999,23779,-.96367736E-4,-.25E-6,0
ONEWEB-0292,2021-083A,2026-07-18T20:31:49.711872,13.13469784,.00017989,87.8982,313.9359,98.4757,261.6576,0,U,49186,999,23508,.420788E-3,.166E-5,0
ONEWEB-0303,2021-083B,2026-07-18T20:50:33.304992,13.18684256,.00017898,87.9198,329.1569,94.7627,265.3710,0,U,49187,999,23415,-.8113538E-4,-.19E-6,0
ONEWEB-0306,2021-083C,2026-07-18T20:35:59.806176,13.18686204,.00020924,87.9197,329.1482,101.5537,258.5830,0,U,49188,999,23419,.4664392E-3,.197E-5,0
ONEWEB-0307,2021-083D,2026-07-18T20:23:17.575008,13.13468663,.00018963,87.8981,313.9348,97.0786,263.0558,0,U,49189,999,23508,.76748499E-3,.293E-5,0
ONEWEB-0320,2021-083E,2026-07-18T21:05:06.602496,13.18685729,.00019754,87.9190,329.1587,98.8358,261.2998,0,U,49190,999,23415,-.60023124E-3,-.224E-5,0
ONEWEB-0321,2021-083F,2026-07-18T17:10:50.688480,13.20771643,.00021549,87.9178,268.1520,103.6890,256.4484,0,U,49191,999,24099,-.49382341E-3,-.188E-5,0
ONEWEB-0322,2021-083G,2026-07-18T20:17:12.732000,13.13470384,.00021175,87.8980,313.9352,112.4680,247.6674,0,U,49192,999,23507,.88168075E-3,.335E-5,0
ONEWEB-0324,2021-083H,2026-07-18T20:26:17.114208,13.18687002,.00020325,87.9203,329.1545,95.5318,264.6046,0,U,49193,999,23417,.12984981E-3,.64E-6,0
ONEWEB-0325,2021-083J,2026-07-18T22:20:23.204832,13.18688107,.00018281,87.9192,329.1444,100.1826,259.9512,0,U,49194,999,23419,.26255324E-3,.116E-5,0
ONEWEB-0326,2021-083K,2026-07-18T20:53:12.408864,13.18686619,.00016558,87.9199,329.1569,94.4369,265.6953,0,U,49195,999,23417,-.40913633E-4,-.3E-7,0
ONEWEB-0327,2021-083L,2026-07-18T20:52:48.248832,13.18686198,.00014816,87.9192,329.1585,97.9931,262.1370,0,U,49196,999,23419,.28554945E-4,.24E-6,0
ONEWEB-0328,2021-083M,2026-07-18T20:02:35.082528,13.13470447,.00020478,87.8988,313.9137,96.7369,263.3993,0,U,49197,999,23505,.58082068E-3,.225E-5,0
ONEWEB-0331,2021-083N,2026-07-18T20:43:16.860576,13.18685468,.00016566,87.9200,329.1523,90.4931,269.6391,0,U,49198,999,23418,.3573658E-3,.154E-5,0
ONEWEB-0333,2021-083P,2026-07-18T19:55:16.142880,13.13470335,.0001886,87.8981,313.9381,101.6233,258.5108,0,U,49199,999,23506,.2933614E-3,.12E-5,0
ONEWEB-0334,2021-083Q,2026-07-18T17:31:26.729472,13.20769680,.0002568,87.9182,268.1596,115.0690,245.0710,0,U,49200,999,24095,-.20180283E-3,-.69E-6,0
ONEWEB-0335,2021-083R,2026-07-18T19:47:57.248160,13.13469545,.00018305,87.8980,313.9365,96.4437,263.6900,0,U,49201,999,23507,.20747536E-4,.2E-6,0
